{
  "type": "FeatureCollection",
  "features": [
    {
      "type": "Feature",
      "properties": {},
      "geometry": {
        "coordinates": [
          100.61792113071942,
          14.083923936572319
        ],
        "type": "Point"
      }
    },
    {
      "type": "Feature",
      "properties": {},
      "geometry": {
        "coordinates": [
          [
            [
              100.59771771888433,
              14.079662914980489
            ],
            [
              100.59322347475785,
              14.0779993699026
            ],
            [
              100.59425066883182,
              14.076266956468459
            ],
            [
              100.59597976085524,
              14.07575711946015
            ],
            [
              100.59674282104976,
              14.07552211842355
            ],
            [
              100.59680424664754,
              14.072794738241853
            ],
            [
              100.59741228179496,
              14.07128653336062
            ],
            [
              100.59674456153186,
              14.070285528348009
            ],
            [
              100.59730459960912,
              14.069632945534607
            ],
            [
              100.59752526866907,
              14.066241045444272
            ],
            [
              100.59831428061409,
              14.066013850835475
            ],
            [
              100.60508471936868,
              14.065711212066603
            ],
            [
              100.60529003154966,
              14.066885768859791
            ],
            [
              100.61711673980665,
              14.066733935355202
            ],
            [
              100.61749371896298,
              14.07575711946015
            ],
            [
              100.6014684907118,
              14.07591389491948
            ],
            [
              100.60066669429813,
              14.076227705605064
            ],
            [
              100.60070392864554,
              14.079345301234596
            ],
            [
              100.59957471820849,
              14.07946436498301
            ],
            [
              100.5981656836006,
              14.079028040211924
            ],
            [
              100.59771771888433,
              14.079662914980489
            ]
          ]
        ],
        "type": "Polygon"
      }
    }
  ]
}